0 COSMOS 1052
1 11129U 78109B   13281.86864677 -.00000016  00000-0 -40208-6 0  3494
2 11129 074.0167 237.4305 0050138 316.8201 105.9986 12.53657610594746
0 COSMOS 1052
1 11129U 78109B   13284.19134654 -.00000040  00000-0 -14670-3 0  3508
2 11129 074.0171 234.3201 0050162 313.3480 148.6910 12.53657842595031
0 COSMOS 1052
1 11129U 78109B   13286.19227957 -.00000032  00000-0 -96988-4 0  3514
2 11129 074.0175 231.6406 0050168 310.3754 179.1857 12.53657794595281
0 COSMOS 1052
1 11129U 78109B   13288.34449906 -.00000014  00000-0  15312-4 0  3525
2 11129 074.0178 228.7587 0050191 307.1397 172.4954 12.53657451595558
0 COSMOS 1052
1 11129U 78109B   13290.72940541  .00000014  00000-0  19057-3 0  3530
2 11129 074.0179 225.5654 0050187 303.5974 135.9125 12.53657314595850
0 COSMOS 1052
1 11129U 78109B   13292.80084887  .00000015  00000-0  19322-3 0  3540
2 11129 074.0178 222.7920 0050177 300.5268 124.6200 12.53657532596117
0 COSMOS 1052
1 11129U 78109B   13294.80244567 -.00000010  00000-0  37463-4 0  3559
2 11129 074.0177 220.1120 0050182 297.5583 158.1017 12.53657792596364
